CCSDS_OMM_VERS = 2.0
CREATION_DATE  = 
ORIGINATOR     = 

OBJECT_NAME    = QIANFAN-96
OBJECT_ID      = 2025-233F
CENTER_NAME    = EARTH
REF_FRAME      = TEME
TIME_SYSTEM    = UTC
MEAN_ELEMENT_THEORY = SGP/SGP4

EPOCH          = 2025-11-04T05:35:27.845952
MEAN_MOTION    = 14.26154747
ECCENTRICITY   = .00159718
INCLINATION    = 88.9950
RA_OF_ASC_NODE = 66.4632
ARG_OF_PERICENTER = 156.7973
MEAN_ANOMALY   = 203.3945

EPHEMERIS_TYPE = 0
CLASSIFICATION_TYPE = U
NORAD_CAT_ID   = 66038
ELEMENT_SET_NO = 999
REV_AT_EPOCH   = 255
BSTAR          = .27132839E-3
MEAN_MOTION_DOT = .664E-5
MEAN_MOTION_DDOT = 0

CCSDS_OMM_VERS = 2.0
CREATION_DATE  = 
ORIGINATOR     = 

OBJECT_NAME    = QIANFAN-97
OBJECT_ID      = 2025-233G
CENTER_NAME    = EARTH
REF_FRAME      = TEME
TIME_SYSTEM    = UTC
MEAN_ELEMENT_THEORY = SGP/SGP4

EPOCH          = 2025-11-04T05:35:19.846176
MEAN_MOTION    = 14.26160667
ECCENTRICITY   = .0015544
INCLINATION    = 88.9950
RA_OF_ASC_NODE = 66.4632
ARG_OF_PERICENTER = 156.2306
MEAN_ANOMALY   = 203.9609

EPHEMERIS_TYPE = 0
CLASSIFICATION_TYPE = U
NORAD_CAT_ID   = 66039
ELEMENT_SET_NO = 999
REV_AT_EPOCH   = 255
BSTAR          = .27278973E-3
MEAN_MOTION_DOT = .668E-5
MEAN_MOTION_DDOT = 0

CCSDS_OMM_VERS = 2.0
CREATION_DATE  = 
ORIGINATOR     = 

OBJECT_NAME    = QIANFAN-98
OBJECT_ID      = 2025-233H
CENTER_NAME    = EARTH
REF_FRAME      = TEME
TIME_SYSTEM    = UTC
MEAN_ELEMENT_THEORY = SGP/SGP4

EPOCH          = 2025-11-04T05:34:59.161152
MEAN_MOTION    = 14.26182156
ECCENTRICITY   = .00151808
INCLINATION    = 88.9950
RA_OF_ASC_NODE = 66.4633
ARG_OF_PERICENTER = 154.9639
MEAN_ANOMALY   = 205.2294

EPHEMERIS_TYPE = 0
CLASSIFICATION_TYPE = U
NORAD_CAT_ID   = 66040
ELEMENT_SET_NO = 999
REV_AT_EPOCH   = 255
BSTAR          = .27372228E-3
MEAN_MOTION_DOT = .67E-5
MEAN_MOTION_DDOT = 0

CCSDS_OMM_VERS = 2.0
CREATION_DATE  = 
ORIGINATOR     = 

OBJECT_NAME    = QIANFAN-99
OBJECT_ID      = 2025-233J
CENTER_NAME    = EARTH
REF_FRAME      = TEME
TIME_SYSTEM    = UTC
MEAN_ELEMENT_THEORY = SGP/SGP4

EPOCH          = 2025-11-04T05:34:48.465696
MEAN_MOTION    = 14.26197613
ECCENTRICITY   = .00153206
INCLINATION    = 88.9950
RA_OF_ASC_NODE = 66.4631
ARG_OF_PERICENTER = 154.0833
MEAN_ANOMALY   = 206.1131

EPHEMERIS_TYPE = 0
CLASSIFICATION_TYPE = U
NORAD_CAT_ID   = 66041
ELEMENT_SET_NO = 999
REV_AT_EPOCH   = 255
BSTAR          = .27329598E-3
MEAN_MOTION_DOT = .67E-5
MEAN_MOTION_DDOT = 0

CCSDS_OMM_VERS = 2.0
CREATION_DATE  = 
ORIGINATOR     = 

OBJECT_NAME    = QIANFAN-100
OBJECT_ID      = 2025-233K
CENTER_NAME    = EARTH
REF_FRAME      = TEME
TIME_SYSTEM    = UTC
MEAN_ELEMENT_THEORY = SGP/SGP4

EPOCH          = 2025-11-04T05:34:42.662208
MEAN_MOTION    = 14.26213195
ECCENTRICITY   = .00157714
INCLINATION    = 88.9950
RA_OF_ASC_NODE = 66.4633
ARG_OF_PERICENTER = 155.7721
MEAN_ANOMALY   = 204.4217

EPHEMERIS_TYPE = 0
CLASSIFICATION_TYPE = U
NORAD_CAT_ID   = 66042
ELEMENT_SET_NO = 999
REV_AT_EPOCH   = 255
BSTAR          = .2694684E-3
MEAN_MOTION_DOT = .661E-5
MEAN_MOTION_DDOT = 0

CCSDS_OMM_VERS = 2.0
CREATION_DATE  = 
ORIGINATOR     = 

OBJECT_NAME    = QIANFAN-101
OBJECT_ID      = 2025-233L
CENTER_NAME    = EARTH
REF_FRAME      = TEME
TIME_SYSTEM    = UTC
MEAN_ELEMENT_THEORY = SGP/SGP4

EPOCH          = 2025-11-04T05:31:28.736544
MEAN_MOTION    = 14.26634382
ECCENTRICITY   = .00157069
INCLINATION    = 88.9950
RA_OF_ASC_NODE = 66.4628
ARG_OF_PERICENTER = 154.0262
MEAN_ANOMALY   = 206.1724

EPHEMERIS_TYPE = 0
CLASSIFICATION_TYPE = U
NORAD_CAT_ID   = 66043
ELEMENT_SET_NO = 999
REV_AT_EPOCH   = 255
BSTAR          = .17733731E-3
MEAN_MOTION_DOT = .443E-5
MEAN_MOTION_DDOT = 0

CCSDS_OMM_VERS = 2.0
CREATION_DATE  = 
ORIGINATOR     = 

OBJECT_NAME    = QIANFAN-102
OBJECT_ID      = 2025-233M
CENTER_NAME    = EARTH
REF_FRAME      = TEME
TIME_SYSTEM    = UTC
MEAN_ELEMENT_THEORY = SGP/SGP4

EPOCH          = 2025-11-04T05:34:33.719808
MEAN_MOTION    = 14.26217377
ECCENTRICITY   = .00161383
INCLINATION    = 88.9950
RA_OF_ASC_NODE = 66.4631
ARG_OF_PERICENTER = 155.8772
MEAN_ANOMALY   = 204.3181

EPHEMERIS_TYPE = 0
CLASSIFICATION_TYPE = U
NORAD_CAT_ID   = 66044
ELEMENT_SET_NO = 999
REV_AT_EPOCH   = 255
BSTAR          = .2792853E-3
MEAN_MOTION_DOT = .684E-5
MEAN_MOTION_DDOT = 0

CCSDS_OMM_VERS = 2.0
CREATION_DATE  = 
ORIGINATOR     = 

OBJECT_NAME    = QIANFAN-103
OBJECT_ID      = 2025-233N
CENTER_NAME    = EARTH
REF_FRAME      = TEME
TIME_SYSTEM    = UTC
MEAN_ELEMENT_THEORY = SGP/SGP4

EPOCH          = 2025-11-04T05:34:09.472512
MEAN_MOTION    = 14.26246598
ECCENTRICITY   = .00155291
INCLINATION    = 88.9950
RA_OF_ASC_NODE = 66.4633
ARG_OF_PERICENTER = 154.6383
MEAN_ANOMALY   = 205.5576

EPHEMERIS_TYPE = 0
CLASSIFICATION_TYPE = U
NORAD_CAT_ID   = 66045
ELEMENT_SET_NO = 999
REV_AT_EPOCH   = 255
BSTAR          = .28014688E-3
MEAN_MOTION_DOT = .687E-5
MEAN_MOTION_DDOT = 0

CCSDS_OMM_VERS = 2.0
CREATION_DATE  = 
ORIGINATOR     = 

OBJECT_NAME    = QIANFAN-104
OBJECT_ID      = 2025-233P
CENTER_NAME    = EARTH
REF_FRAME      = TEME
TIME_SYSTEM    = UTC
MEAN_ELEMENT_THEORY = SGP/SGP4

EPOCH          = 2025-11-04T05:33:51.603264
MEAN_MOTION    = 14.26267369
ECCENTRICITY   = .00155062
INCLINATION    = 88.9950
RA_OF_ASC_NODE = 66.4632
ARG_OF_PERICENTER = 156.9098
MEAN_ANOMALY   = 203.2796

EPHEMERIS_TYPE = 0
CLASSIFICATION_TYPE = U
NORAD_CAT_ID   = 66046
ELEMENT_SET_NO = 999
REV_AT_EPOCH   = 255
BSTAR          = .28358973E-3
MEAN_MOTION_DOT = .695E-5
MEAN_MOTION_DDOT = 0

CCSDS_OMM_VERS = 2.0
CREATION_DATE  = 
ORIGINATOR     = 

OBJECT_NAME    = QIANFAN-105
OBJECT_ID      = 2025-233Q
CENTER_NAME    = EARTH
REF_FRAME      = TEME
TIME_SYSTEM    = UTC
MEAN_ELEMENT_THEORY = SGP/SGP4

EPOCH          = 2025-11-04T05:33:22.195296
MEAN_MOTION    = 14.26325745
ECCENTRICITY   = .00156904
INCLINATION    = 88.9950
RA_OF_ASC_NODE = 66.4630
ARG_OF_PERICENTER = 157.0302
MEAN_ANOMALY   = 203.1596

EPHEMERIS_TYPE = 0
CLASSIFICATION_TYPE = U
NORAD_CAT_ID   = 66047
ELEMENT_SET_NO = 999
REV_AT_EPOCH   = 255
BSTAR          = .28014949E-3
MEAN_MOTION_DOT = .688E-5
MEAN_MOTION_DDOT = 0

CCSDS_OMM_VERS = 2.0
CREATION_DATE  = 
ORIGINATOR     = 

OBJECT_NAME    = QIANFAN-106
OBJECT_ID      = 2025-233R
CENTER_NAME    = EARTH
REF_FRAME      = TEME
TIME_SYSTEM    = UTC
MEAN_ELEMENT_THEORY = SGP/SGP4

EPOCH          = 2025-11-04T05:33:23.343552
MEAN_MOTION    = 14.26309077
ECCENTRICITY   = .00155739
INCLINATION    = 88.9950
RA_OF_ASC_NODE = 66.4631
ARG_OF_PERICENTER = 156.7155
MEAN_ANOMALY   = 203.4748

EPHEMERIS_TYPE = 0
CLASSIFICATION_TYPE = U
NORAD_CAT_ID   = 66048
ELEMENT_SET_NO = 999
REV_AT_EPOCH   = 255
BSTAR          = .27152144E-3
MEAN_MOTION_DOT = .667E-5
MEAN_MOTION_DDOT = 0

CCSDS_OMM_VERS = 2.0
CREATION_DATE  = 
ORIGINATOR     = 

OBJECT_NAME    = QIANFAN-107
OBJECT_ID      = 2025-233S
CENTER_NAME    = EARTH
REF_FRAME      = TEME
TIME_SYSTEM    = UTC
MEAN_ELEMENT_THEORY = SGP/SGP4

EPOCH          = 2025-11-04T05:33:07.544448
MEAN_MOTION    = 14.26337958
ECCENTRICITY   = .00163649
INCLINATION    = 88.9950
RA_OF_ASC_NODE = 66.4630
ARG_OF_PERICENTER = 154.8798
MEAN_ANOMALY   = 205.3195

EPHEMERIS_TYPE = 0
CLASSIFICATION_TYPE = U
NORAD_CAT_ID   = 66049
ELEMENT_SET_NO = 999
REV_AT_EPOCH   = 255
BSTAR          = .27385678E-3
MEAN_MOTION_DOT = .673E-5
MEAN_MOTION_DDOT = 0

